MISR-B-2                
1 56940U 23084J   23316.28793078  .00025401  00000+0  11934-2 0  9991
2 56940  97.5246  71.2573 0008681  57.3304 302.8767 15.19559587 23080
2023-084K               
1 56941U 23084K   23316.75219374  .00020922  00000+0  10399-2 0  9993
2 56941  97.5265  71.5662 0009270  42.1113 318.0831 15.17636023 23146
AFRL-XVI                
1 56942U 23084L   23316.31157789  .00013078  00000+0  66488-3 0  9992
2 56942  97.5275  71.1063 0010562  60.9539 299.2751 15.16937012 23079
NUSAT-40 (C SHOEMAKER)  
1 56943U 23084M   23316.76968749  .00009931  00000+0  53017-3 0  9995
2 56943  97.5250  71.3492 0011657  55.2207 305.0121 15.15271470 23138
NUSAT-41 (C PAYNE-G)    
1 56944U 23084N   23316.75636690  .00010079  00000+0  53475-3 0  9995
2 56944  97.5237  71.3431 0011364  56.2667 303.9647 15.15490775 23134
2023-084P               
1 56945U 23084P   23316.80373362  .00028356  00000+0  13464-2 0  9996
2 56945  97.5225  71.7102 0008655  51.1097 309.0907 15.19169692 23165
GREGOIRE                
1 56946U 23084Q   23316.76552890  .00006223  00000+0  32397-3 0  9993
2 56946  97.5267  71.5492 0011504  55.8982 304.3341 15.16321538 23147
ICEYE-X30               
1 56947U 23084R   23316.32555724  .00015711  00000+0  77943-3 0  9993
2 56947  97.5240  71.1809 0010651  47.3432 312.8698 15.17751176 23083
2023-084S               
1 56948U 23084S   23316.78812934  .00028680  00000+0  13504-2 0  9994
2 56948  97.5221  71.7269 0009244  49.8661 310.3382 15.19453977 23168
ICEYE-X23               
1 56949U 23084T   23316.79778214  .00018175  00000+0  90871-3 0  9999
2 56949  97.5256  71.6535 0010549  47.9992 312.2138 15.17449240 23153
BLACKJACK ACES-3        
1 56950U 23084U   23316.60530034  .00010334  00000+0  54485-3 0  9997
2 56950  97.5267  71.2937 0012329  49.1309 311.0989 15.15695842 23119
QPS-SAR-6 AMATERU-III   
1 56951U 23084V   23316.80877352  .00026889  00000+0  12878-2 0  9998
2 56951  97.5250  71.7743 0010463  45.7210 314.4881 15.18867118 23165
BLACKJACK ACES-4        
1 56952U 23084W   23316.31263840  .00010322  00000+0  53505-3 0  9994
2 56952  97.5260  71.0584 0012837  52.0562 308.1829 15.16292832 23076
RUNNER-1 (TYVAK-1005)   
1 56953U 23084X   23316.56322607  .00006483  00000+0  35017-3 0  9990
2 56953  97.5257  71.1714 0013851  50.7342 309.5116 15.14973196 23102
HOTSAT-1                
1 56954U 23084Y   23316.77240268  .00005388  00000+0  29427-3 0  9997
2 56954  97.5276  71.3973 0013906  53.2012 307.0494 15.14658929 23135
BLACKJACK ACES-2        
1 56955U 23084Z   23316.33866976  .00018704  00000+0  98248-3 0  9993
2 56955  97.5264  71.0203 0013214  53.1717 307.0725 15.15676594 23078
BLACKJACK ACES-1        
1 56956U 23084AA  23316.57048560  .00010683  00000+0  58745-3 0  9997
2 56956  97.5260  71.3436 0013326  56.8316 303.4192 15.14181687 23111
ION SCV-011             
1 56957U 23084AB  23316.58020117  .00001198  00000+0  18483-3 0  9993
2 56957  98.0396  72.4694 0070686 281.4045  77.9229 14.73644106 22693
GHOST-3                 
1 56958U 23084AC  23316.59020569  .00008979  00000+0  47478-3 0  9996
2 56958  97.5269  71.3167 0013988  54.1130 306.1398 15.15617694 23113
PHOTON-04               
1 56959U 23084AD  23316.59259039  .00008865  00000+0  46974-3 0  9997
2 56959  97.5267  71.3069 0014161  54.9417 305.3142 15.15545222 23118
ORBITER SN3             
1 56960U 23084AE  23316.80756144  .00006813  00000+0  36690-3 0  9997
2 56960  97.5286  71.5151 0013665  60.6634 299.5961 15.15066951 23141
ICEYE-X26               
1 56961U 23084AF  23316.32625912  .00016020  00000+0  77683-3 0  9991
2 56961  97.5232  71.3179 0012388  49.1817 311.0489 15.18526865 23094
TOMORROW-R2             
1 56962U 23084AG  23316.29028647  .00008839  00000+0  45818-3 0  9994
2 56962  97.5257  71.0908 0014144  53.1747 307.0781 15.16323223 23077
ICEYE-X25               
1 56963U 23084AH  23316.81056464  .00017898  00000+0  95467-3 0  9991
2 56963  97.5248  71.4769 0014617  56.9910 303.2724 15.15125132 23146
AFR-1                   
1 56964U 23084AJ  23316.81314137  .00005412  00000+0  29413-3 0  9993
2 56964  97.5281  71.5005 0015335  52.0553 308.2062 15.14813150 23149
DROID.001               
1 56965U 23084AK  23316.27870306  .00010025  00000+0  51630-3 0  9991
2 56965  97.5241  71.0723 0013952  48.9090 311.3345 15.16514770 23070
NUSAT-42 (M WONENBURGER)
1 56966U 23084AL  23316.81183969  .00010784  00000+0  55794-3 0  9991
2 56966  97.5284  71.6681 0014634  50.8624 309.3906 15.16324732 23156
MUSAT1                  
1 56967U 23084AM  23316.28225586  .00021487  00000+0  10086-2 0  9991
2 56967  97.5229  71.3738 0012529  46.0551 314.1715 15.19590187 23090
NUSAT-43 (R DIENG-KUNTZ)
1 56968U 23084AN  23316.58253704  .00011658  00000+0  55042-3 0  9999
2 56968  97.5085  71.5752 0015303  53.0116 307.2517 15.19493684 23140
SPACEBEE-179            
1 56969U 23084AP  23316.32382502  .00020430  00000+0  95212-3 0  9992
2 56969  97.5266  71.5323 0013494  45.9367 314.2977 15.19838179 23109
