OBJECT_NAME,OBJECT_ID,EPOCH,MEAN_MOTION,ECCENTRICITY,INCLINATION,RA_OF_ASC_NODE,ARG_OF_PERICENTER,MEAN_ANOMALY,EPHEMERIS_TYPE,CLASSIFICATION_TYPE,NORAD_CAT_ID,ELEMENT_SET_NO,REV_AT_EPOCH,BSTAR,MEAN_MOTION_DOT,MEAN_MOTION_DDOT
MISR-B-2,2023-084J,2023-11-12T06:54:37.219392,15.19559587,.0008681,97.5246,71.2573,57.3304,302.8767,0,U,56940,999,2308,.11934E-2,.25401E-3,0
2023-084K,2023-084K,2023-11-12T18:03:09.539136,15.17636023,.000927,97.5265,71.5662,42.1113,318.0831,0,U,56941,999,2314,.10399E-2,.20922E-3,0
AFRL-XVI,2023-084L,2023-11-12T07:28:40.329696,15.16937012,.0010562,97.5275,71.1063,60.9539,299.2751,0,U,56942,999,2307,.66488E-3,.13078E-3,0
NUSAT-40 (C SHOEMAKER),2023-084M,2023-11-12T18:28:20.999136,15.15271470,.0011657,97.5250,71.3492,55.2207,305.0121,0,U,56943,999,2313,.53017E-3,.9931E-4,0
NUSAT-41 (C PAYNE-G),2023-084N,2023-11-12T18:09:10.100160,15.15490775,.0011364,97.5237,71.3431,56.2667,303.9647,0,U,56944,999,2313,.53475E-3,.10079E-3,0
2023-084P,2023-084P,2023-11-12T19:17:22.584768,15.19169692,.0008655,97.5225,71.7102,51.1097,309.0907,0,U,56945,999,2316,.13464E-2,.28356E-3,0
GREGOIRE,2023-084Q,2023-11-12T18:22:21.696960,15.16321538,.0011504,97.5267,71.5492,55.8982,304.3341,0,U,56946,999,2314,.32397E-3,.6223E-4,0
ICEYE-X30,2023-084R,2023-11-12T07:48:48.145536,15.17751176,.0010651,97.5240,71.1809,47.3432,312.8698,0,U,56947,999,2308,.77943E-3,.15711E-3,0
2023-084S,2023-084S,2023-11-12T18:54:54.374976,15.19453977,.0009244,97.5221,71.7269,49.8661,310.3382,0,U,56948,999,2316,.13504E-2,.2868E-3,0
ICEYE-X23,2023-084T,2023-11-12T19:08:48.376896,15.17449240,.0010549,97.5256,71.6535,47.9992,312.2138,0,U,56949,999,2315,.90871E-3,.18175E-3,0
BLACKJACK ACES-3,2023-084U,2023-11-12T14:31:37.949376,15.15695842,.0012329,97.5267,71.2937,49.1309,311.0989,0,U,56950,999,2311,.54485E-3,.10334E-3,0
QPS-SAR-6 AMATERU-III,2023-084V,2023-11-12T19:24:38.032128,15.18867118,.0010463,97.5250,71.7743,45.7210,314.4881,0,U,56951,999,2316,.12878E-2,.26889E-3,0
BLACKJACK ACES-4,2023-084W,2023-11-12T07:30:11.957760,15.16292832,.0012837,97.5260,71.0584,52.0562,308.1829,0,U,56952,999,2307,.53505E-3,.10322E-3,0
RUNNER-1 (TYVAK-1005),2023-084X,2023-11-12T13:31:02.732448,15.14973196,.0013851,97.5257,71.1714,50.7342,309.5116,0,U,56953,999,2310,.35017E-3,.6483E-4,0
HOTSAT-1,2023-084Y,2023-11-12T18:32:15.591552,15.14658929,.0013906,97.5276,71.3973,53.2012,307.0494,0,U,56954,999,2313,.29427E-3,.5388E-4,0
BLACKJACK ACES-2,2023-084Z,2023-11-12T08:07:41.067264,15.15676594,.0013214,97.5264,71.0203,53.1717,307.0725,0,U,56955,999,2307,.98248E-3,.18704E-3,0
BLACKJACK ACES-1,2023-084AA,2023-11-12T13:41:29.955840,15.14181687,.0013326,97.5260,71.3436,56.8316,303.4192,0,U,56956,999,2311,.58745E-3,.10683E-3,0
ION SCV-011,2023-084AB,2023-11-12T13:55:29.381088,14.73644106,.0070686,98.0396,72.4694,281.4045,77.9229,0,U,56957,999,2269,.18483E-3,.1198E-4,0
GHOST-3,2023-084AC,2023-11-12T14:09:53.771616,15.15617694,.0013988,97.5269,71.3167,54.1130,306.1398,0,U,56958,999,2311,.47478E-3,.8979E-4,0
PHOTON-04,2023-084AD,2023-11-12T14:13:19.809696,15.15545222,.0014161,97.5267,71.3069,54.9417,305.3142,0,U,56959,999,2311,.46974E-3,.8865E-4,0
ORBITER SN3,2023-084AE,2023-11-12T19:22:53.308416,15.15066951,.0013665,97.5286,71.5151,60.6634,299.5961,0,U,56960,999,2314,.3669E-3,.6813E-4,0
ICEYE-X26,2023-084AF,2023-11-12T07:49:48.787968,15.18526865,.0012388,97.5232,71.3179,49.1817,311.0489,0,U,56961,999,2309,.77683E-3,.1602E-3,0
TOMORROW-R2,2023-084AG,2023-11-12T06:58:00.751008,15.16323223,.0014144,97.5257,71.0908,53.1747,307.0781,0,U,56962,999,2307,.45818E-3,.8839E-4,0
ICEYE-X25,2023-084AH,2023-11-12T19:27:12.784896,15.15125132,.0014617,97.5248,71.4769,56.9910,303.2724,0,U,56963,999,2314,.95467E-3,.17898E-3,0
AFR-1,2023-084AJ,2023-11-12T19:30:55.414368,15.14813150,.0015335,97.5281,71.5005,52.0553,308.2062,0,U,56964,999,2314,.29413E-3,.5412E-4,0
DROID.001,2023-084AK,2023-11-12T06:41:19.944384,15.16514770,.0013952,97.5241,71.0723,48.9090,311.3345,0,U,56965,999,2307,.5163E-3,.10025E-3,0
NUSAT-42 (M WONENBURGER),2023-084AL,2023-11-12T19:29:02.949216,15.16324732,.0014634,97.5284,71.6681,50.8624,309.3906,0,U,56966,999,2315,.55794E-3,.10784E-3,0
MUSAT1,2023-084AM,2023-11-12T06:46:26.906304,15.19590187,.0012529,97.5229,71.3738,46.0551,314.1715,0,U,56967,999,2309,.10086E-2,.21487E-3,0
NUSAT-43 (R DIENG-KUNTZ),2023-084AN,2023-11-12T13:58:51.200256,15.19493684,.0015303,97.5085,71.5752,53.0116,307.2517,0,U,56968,999,2314,.55042E-3,.11658E-3,0
SPACEBEE-179,2023-084AP,2023-11-12T07:46:18.481728,15.19838179,.0013494,97.5266,71.5323,45.9367,314.2977,0,U,56969,999,2310,.95212E-3,.2043E-3,0
